{
  "type": "FeatureCollection",
  "features": [
    {
      "type": "Feature",
      "geometry": {
        "type": "Polygon",
        "coordinates": [
          [
            [14.553618, 53.438325],
            [14.553562, 53.43823],
            [14.553555, 53.438232],
            [14.553545, 53.438217],
            [14.553539, 53.438211],
            [14.553531, 53.438202],
            [14.553521, 53.438194],
            [14.553507, 53.438183],
            [14.553492, 53.438174],
            [14.553477, 53.438167],
            [14.553456, 53.438159],
            [14.553436, 53.438152],
            [14.553417, 53.438148],
            [14.553395, 53.438144],
            [14.553371, 53.438141],
            [14.553347, 53.438141],
            [14.553346, 53.438146],
            [14.553317, 53.438146],
            [14.553319, 53.43814],
            [14.553263, 53.438142],
            [14.553077, 53.438124],
            [14.553076, 53.438124],
            [14.553096, 53.43804],
            [14.553115, 53.438041],
            [14.553128, 53.438042],
            [14.553176, 53.437819],
            [14.553185, 53.437784],
            [14.553192, 53.437765],
            [14.553199, 53.43775],
            [14.553213, 53.437728],
            [14.553227, 53.437711],
            [14.553245, 53.437694],
            [14.553261, 53.437681],
            [14.553284, 53.437666],
            [14.55331, 53.437651],
            [14.553332, 53.437641],
            [14.553362, 53.437629],
            [14.553386, 53.437622],
            [14.553419, 53.437613],
            [14.55351, 53.437594],
            [14.553691, 53.437554],
            [14.553691, 53.437556],
            [14.553732, 53.437548],
            [14.553765, 53.437545],
            [14.553807, 53.437542],
            [14.553838, 53.437541],
            [14.553866, 53.437541],
            [14.553869, 53.43754],
            [14.553903, 53.437541],
            [14.553929, 53.437543],
            [14.553955, 53.437547],
            [14.553981, 53.437553],
            [14.554001, 53.437561],
            [14.554025, 53.43757],
            [14.554046, 53.437582],
            [14.554069, 53.437599],
            [14.554084, 53.437615],
            [14.554093, 53.43763],
            [14.554091, 53.43763],
            [14.554181, 53.437778],
            [14.55428, 53.437941],
            [14.554283, 53.437941],
            [14.554287, 53.437949],
            [14.554289, 53.437949],
            [14.554294, 53.437957],
            [14.554293, 53.437958],
            [14.554297, 53.437965],
            [14.554299, 53.437965],
            [14.554305, 53.437974],
            [14.554303, 53.437975],
            [14.554305, 53.437978],
            [14.554307, 53.437981],
            [14.554309, 53.437982],
            [14.554315, 53.437991],
            [14.554313, 53.437992],
            [14.554318, 53.437999],
            [14.55432, 53.438],
            [14.554325, 53.438007],
            [14.554323, 53.438008],
            [14.554326, 53.438012],
            [14.554323, 53.438013],
            [14.554329, 53.438023],
            [14.554339, 53.438046],
            [14.554343, 53.438069],
            [14.554342, 53.438081],
            [14.554339, 53.438101],
            [14.554335, 53.438115],
            [14.554337, 53.438118],
            [14.554334, 53.438125],
            [14.55433, 53.438133],
            [14.554325, 53.438143],
            [14.55432, 53.438151],
            [14.554315, 53.438157],
            [14.554312, 53.438156],
            [14.554304, 53.438166],
            [14.554291, 53.43818],
            [14.554273, 53.438195],
            [14.55425, 53.438211],
            [14.554224, 53.438226],
            [14.554197, 53.438238],
            [14.554181, 53.438244],
            [14.554157, 53.438251],
            [14.554125, 53.43826],
            [14.554124, 53.438261],
            [14.554109, 53.438265],
            [14.554108, 53.438264],
            [14.554098, 53.438266],
            [14.554098, 53.438267],
            [14.554082, 53.43827],
            [14.554081, 53.438269],
            [14.554067, 53.438272],
            [14.554067, 53.438273],
            [14.554054, 53.438276],
            [14.554053, 53.438275],
            [14.554041, 53.438278],
            [14.554041, 53.438279],
            [14.554026, 53.438282],
            [14.554025, 53.438281],
            [14.554012, 53.438284],
            [14.554013, 53.438285],
            [14.553997, 53.438288],
            [14.553996, 53.438287],
            [14.553982, 53.43829],
            [14.553982, 53.438292],
            [14.55397, 53.438294],
            [14.553969, 53.438293],
            [14.553875, 53.438313],
            [14.553873, 53.438309],
            [14.553827, 53.438319],
            [14.55377, 53.438331],
            [14.553749, 53.438297],
            [14.553692, 53.438309],
            [14.553635, 53.438321],
            [14.553618, 53.438325]
          ]
        ]
      },
      "properties": { "h": 84 }
    },
    {
      "type": "Feature",
      "geometry": {
        "type": "Polygon",
        "coordinates": [
          [
            [14.584484, 53.437584],
            [14.584128, 53.437655],
            [14.583897, 53.437243],
            [14.583873, 53.4372],
            [14.583859, 53.437203],
            [14.583848, 53.437205],
            [14.58381, 53.437138],
            [14.583786, 53.437095],
            [14.583798, 53.437093],
            [14.583812, 53.43709],
            [14.583481, 53.436502],
            [14.5836, 53.436478],
            [14.583836, 53.436431],
            [14.583952, 53.436638],
            [14.584167, 53.437018],
            [14.58418, 53.437015],
            [14.584192, 53.437013],
            [14.584257, 53.437129],
            [14.584278, 53.437167],
            [14.584268, 53.437169],
            [14.584253, 53.437173],
            [14.584484, 53.437584]
          ]
        ]
      },
      "properties": { "h": 60 }
    },
    {
      "type": "Feature",
      "geometry": {
        "type": "Polygon",
        "coordinates": [
          [
            [14.558189, 53.418714],
            [14.558219, 53.41874],
            [14.55826, 53.418724],
            [14.558309, 53.418763],
            [14.558324, 53.418756],
            [14.558418, 53.418835],
            [14.5584, 53.418841],
            [14.558434, 53.418872],
            [14.558148, 53.419045],
            [14.557908, 53.418841],
            [14.558189, 53.418714]
          ]
        ]
      },
      "properties": { "h": 45 }
    },
    {
      "type": "Feature",
      "geometry": {
        "type": "Polygon",
        "coordinates": [
          [
            [14.546023, 53.408233],
            [14.545991, 53.408228],
            [14.546022, 53.408158],
            [14.546054, 53.408163],
            [14.546059, 53.408154],
            [14.546224, 53.40818],
            [14.546183, 53.408273],
            [14.546017, 53.408247],
            [14.546023, 53.408233]
          ]
        ]
      },
      "properties": { "h": 44 }
    },
    {
      "type": "Feature",
      "geometry": {
        "type": "Polygon",
        "coordinates": [
          [
            [14.556905, 53.444522],
            [14.556516, 53.444183],
            [14.556476, 53.444148],
            [14.556473, 53.444146],
            [14.556649, 53.444074],
            [14.556658, 53.44407],
            [14.556742, 53.444144],
            [14.556704, 53.444159],
            [14.556722, 53.444174],
            [14.556736, 53.444168],
            [14.556736, 53.444168],
            [14.556761, 53.44419],
            [14.556964, 53.444368],
            [14.556951, 53.444374],
            [14.556968, 53.444389],
            [14.557004, 53.444373],
            [14.557088, 53.444446],
            [14.557009, 53.444479],
            [14.556999, 53.44447],
            [14.556974, 53.444481],
            [14.556984, 53.444489],
            [14.556905, 53.444522]
          ]
        ]
      },
      "properties": { "h": 39 }
    },
    {
      "type": "Feature",
      "geometry": {
        "type": "Polygon",
        "coordinates": [
          [
            [14.558231, 53.450224],
            [14.558172, 53.450072],
            [14.558206, 53.450068],
            [14.558186, 53.450016],
            [14.558213, 53.450012],
            [14.558194, 53.449962],
            [14.55816, 53.449967],
            [14.55813, 53.44989],
            [14.558165, 53.449884],
            [14.558126, 53.44978],
            [14.558092, 53.449784],
            [14.558062, 53.449707],
            [14.558095, 53.449701],
            [14.558077, 53.449652],
            [14.558025, 53.44966],
            [14.558005, 53.449608],
            [14.557968, 53.449613],
            [14.557939, 53.449536],
            [14.557958, 53.449533],
            [14.557925, 53.449448],
            [14.558042, 53.449433],
            [14.558035, 53.44941],
            [14.558128, 53.449398],
            [14.558158, 53.449482],
            [14.558194, 53.449477],
            [14.55821, 53.449521],
            [14.558176, 53.449526],
            [14.558216, 53.449629],
            [14.558269, 53.449623],
            [14.558279, 53.449655],
            [14.558315, 53.44965],
            [14.558332, 53.449691],
            [14.558295, 53.449696],
            [14.55835, 53.449838],
            [14.558384, 53.449833],
            [14.558401, 53.449874],
            [14.558362, 53.44988],
            [14.558405, 53.449988],
            [14.558381, 53.449991],
            [14.558412, 53.450075],
            [14.558444, 53.45007],
            [14.55846, 53.45011],
            [14.558429, 53.450115],
            [14.558449, 53.450168],
            [14.558325, 53.450187],
            [14.558334, 53.450208],
            [14.558231, 53.450224]
          ]
        ]
      },
      "properties": { "h": 39 }
    },
    {
      "type": "Feature",
      "geometry": {
        "type": "Polygon",
        "coordinates": [
          [
            [14.54031, 53.414181],
            [14.540303, 53.414135],
            [14.540357, 53.414132],
            [14.540355, 53.414115],
            [14.540317, 53.414117],
            [14.540309, 53.41407],
            [14.540346, 53.414068],
            [14.540343, 53.414053],
            [14.540325, 53.414054],
            [14.54032, 53.414026],
            [14.540373, 53.414022],
            [14.540362, 53.413959],
            [14.540514, 53.413949],
            [14.540516, 53.413961],
            [14.540587, 53.413956],
            [14.540589, 53.413967],
            [14.540607, 53.414077],
            [14.540537, 53.414081],
            [14.540542, 53.414103],
            [14.540503, 53.414106],
            [14.540513, 53.414169],
            [14.540402, 53.414175],
            [14.540378, 53.414177],
            [14.54031, 53.414181]
          ]
        ]
      },
      "properties": { "h": 36 }
    },
    {
      "type": "Feature",
      "geometry": {
        "type": "Polygon",
        "coordinates": [
          [
            [14.543156, 53.414103],
            [14.54313, 53.414046],
            [14.543009, 53.414064],
            [14.54288, 53.413771],
            [14.542796, 53.413784],
            [14.542761, 53.413704],
            [14.542829, 53.413693],
            [14.542796, 53.413619],
            [14.543011, 53.413586],
            [14.54304, 53.413652],
            [14.543145, 53.413636],
            [14.543117, 53.413572],
            [14.543263, 53.413549],
            [14.543328, 53.413699],
            [14.543173, 53.413723],
            [14.54332, 53.414061],
            [14.543187, 53.414082],
            [14.543194, 53.414097],
            [14.543156, 53.414103]
          ]
        ]
      },
      "properties": { "h": 36 }
    },
    {
      "type": "Feature",
      "geometry": {
        "type": "Polygon",
        "coordinates": [
          [
            [14.541804, 53.413458],
            [14.541873, 53.413458],
            [14.541873, 53.413454],
            [14.541947, 53.413455],
            [14.541948, 53.413539],
            [14.541997, 53.413539],
            [14.541998, 53.413499],
            [14.542135, 53.413498],
            [14.542133, 53.413659],
            [14.541932, 53.413659],
            [14.541933, 53.413669],
            [14.541804, 53.413671],
            [14.541804, 53.4136],
            [14.541804, 53.413559],
            [14.541804, 53.413458]
          ]
        ]
      },
      "properties": { "h": 36 }
    },
    {
      "type": "Feature",
      "geometry": {
        "type": "Polygon",
        "coordinates": [
          [
            [14.540607, 53.414077],
            [14.540589, 53.413967],
            [14.540732, 53.413958],
            [14.540729, 53.413937],
            [14.540806, 53.413932],
            [14.540808, 53.413943],
            [14.540882, 53.413939],
            [14.540898, 53.414051],
            [14.540899, 53.41406],
            [14.540607, 53.414077]
          ]
        ]
      },
      "properties": { "h": 36 }
    },
    {
      "type": "Feature",
      "geometry": {
        "type": "Polygon",
        "coordinates": [
          [
            [14.540898, 53.414051],
            [14.540882, 53.413939],
            [14.540956, 53.413934],
            [14.540952, 53.413915],
            [14.540956, 53.413915],
            [14.541027, 53.41391],
            [14.54103, 53.41392],
            [14.541101, 53.413916],
            [14.541103, 53.413927],
            [14.541132, 53.413926],
            [14.54113, 53.413915],
            [14.541208, 53.413911],
            [14.541217, 53.413967],
            [14.541182, 53.413969],
            [14.541192, 53.414034],
            [14.540898, 53.414051]
          ]
        ]
      },
      "properties": { "h": 36 }
    },
    {
      "type": "Feature",
      "geometry": {
        "type": "Polygon",
        "coordinates": [
          [
            [14.552766, 53.428084],
            [14.552762, 53.42806],
            [14.552692, 53.42807],
            [14.55265, 53.427967],
            [14.552657, 53.427962],
            [14.552663, 53.427957],
            [14.552653, 53.427931],
            [14.552633, 53.427927],
            [14.552619, 53.427892],
            [14.552643, 53.42787],
            [14.552632, 53.427844],
            [14.552601, 53.427848],
            [14.552579, 53.427795],
            [14.552764, 53.427768],
            [14.552779, 53.427805],
            [14.552865, 53.428019],
            [14.552888, 53.428072],
            [14.552833, 53.42808],
            [14.552766, 53.428084]
          ]
        ]
      },
      "properties": { "h": 36 }
    },
    {
      "type": "Feature",
      "geometry": {
        "type": "Polygon",
        "coordinates": [
          [
            [14.553244, 53.428338],
            [14.553107, 53.428359],
            [14.553097, 53.428331],
            [14.553046, 53.428204],
            [14.553077, 53.428199],
            [14.553058, 53.428154],
            [14.553027, 53.428158],
            [14.552986, 53.428057],
            [14.553165, 53.428028],
            [14.553199, 53.428112],
            [14.553255, 53.428251],
            [14.553287, 53.42833],
            [14.553288, 53.428332],
            [14.553244, 53.428338]
          ]
        ]
      },
      "properties": { "h": 36 }
    },
    {
      "type": "Feature",
      "geometry": {
        "type": "Polygon",
        "coordinates": [
          [
            [14.552755, 53.42915],
            [14.552779, 53.429144],
            [14.552922, 53.429106],
            [14.553021, 53.429243],
            [14.553128, 53.429392],
            [14.553015, 53.429421],
            [14.552961, 53.429436],
            [14.552913, 53.429371],
            [14.552836, 53.429264],
            [14.552829, 53.429254],
            [14.552802, 53.429217],
            [14.552755, 53.42915]
          ]
        ]
      },
      "properties": { "h": 36 }
    },
    {
      "type": "Feature",
      "geometry": {
        "type": "Polygon",
        "coordinates": [
          [
            [14.555059, 53.431412],
            [14.555007, 53.431303],
            [14.555159, 53.431276],
            [14.555168, 53.431293],
            [14.555211, 53.431285],
            [14.555178, 53.431221],
            [14.555707, 53.431131],
            [14.555732, 53.431182],
            [14.55578, 53.431174],
            [14.555987, 53.43114],
            [14.555985, 53.431134],
            [14.555991, 53.431133],
            [14.556052, 53.431257],
            [14.55596, 53.431273],
            [14.555869, 53.431288],
            [14.55586, 53.43127],
            [14.555778, 53.431283],
            [14.555787, 53.4313],
            [14.555263, 53.431391],
            [14.555257, 53.431379],
            [14.555207, 53.431387],
            [14.555215, 53.431401],
            [14.555084, 53.431424],
            [14.555059, 53.431412]
          ]
        ]
      },
      "properties": { "h": 36 }
    },
    {
      "type": "Feature",
      "geometry": {
        "type": "Polygon",
        "coordinates": [
          [
            [14.55073, 53.441026],
            [14.550745, 53.441017],
            [14.550728, 53.441007],
            [14.550701, 53.441023],
            [14.550639, 53.440984],
            [14.550649, 53.440978],
            [14.550588, 53.440942],
            [14.55067, 53.440894],
            [14.550667, 53.440893],
            [14.550731, 53.440853],
            [14.550929, 53.440968],
            [14.550889, 53.440991],
            [14.550903, 53.440999],
            [14.550796, 53.441065],
            [14.55073, 53.441026]
          ]
        ]
      },
      "properties": { "h": 36 }
    },
    {
      "type": "Feature",
      "geometry": {
        "type": "Polygon",
        "coordinates": [
          [
            [14.55093, 53.440547],
            [14.550945, 53.440538],
            [14.550927, 53.440527],
            [14.5509, 53.440543],
            [14.550877, 53.440529],
            [14.550881, 53.440524],
            [14.550844, 53.440502],
            [14.550822, 53.440515],
            [14.55075, 53.440475],
            [14.550933, 53.440368],
            [14.550945, 53.44036],
            [14.551146, 53.440479],
            [14.55109, 53.440513],
            [14.551104, 53.440521],
            [14.550995, 53.440586],
            [14.550975, 53.440574],
            [14.55093, 53.440547]
          ]
        ]
      },
      "properties": { "h": 36 }
    },
    {
      "type": "Feature",
      "geometry": {
        "type": "Polygon",
        "coordinates": [
          [
            [14.554114, 53.438681],
            [14.55412, 53.438664],
            [14.554005, 53.438647],
            [14.554038, 53.438573],
            [14.554074, 53.438496],
            [14.554081, 53.438478],
            [14.554356, 53.438523],
            [14.55428, 53.438689],
            [14.554253, 53.438685],
            [14.554209, 53.438678],
            [14.554192, 53.438699],
            [14.554151, 53.438689],
            [14.554114, 53.438681]
          ]
        ]
      },
      "properties": { "h": 36 }
    },
    {
      "type": "Feature",
      "geometry": {
        "type": "Polygon",
        "coordinates": [
          [
            [14.553594, 53.438944],
            [14.553556, 53.438942],
            [14.553564, 53.438923],
            [14.55345, 53.438902],
            [14.553504, 53.438786],
            [14.553527, 53.438737],
            [14.553802, 53.438783],
            [14.553727, 53.438948],
            [14.553654, 53.438937],
            [14.553638, 53.438959],
            [14.553594, 53.438944]
          ]
        ]
      },
      "properties": { "h": 36 }
    },
    {
      "type": "Feature",
      "geometry": {
        "type": "Polygon",
        "coordinates": [
          [
            [14.554501, 53.438941],
            [14.554463, 53.438936],
            [14.554471, 53.438917],
            [14.554355, 53.438898],
            [14.554382, 53.438839],
            [14.554422, 53.438752],
            [14.554432, 53.438732],
            [14.554706, 53.438776],
            [14.554639, 53.438927],
            [14.554631, 53.438943],
            [14.554559, 53.438931],
            [14.554541, 53.438953],
            [14.554501, 53.438941]
          ]
        ]
      },
      "properties": { "h": 36 }
    },
    {
      "type": "Feature",
      "geometry": {
        "type": "Polygon",
        "coordinates": [
          [
            [14.553155, 53.439211],
            [14.553116, 53.439205],
            [14.55313, 53.439185],
            [14.553017, 53.439165],
            [14.553037, 53.439126],
            [14.553064, 53.439072],
            [14.553099, 53.439001],
            [14.553374, 53.439047],
            [14.553292, 53.439214],
            [14.553216, 53.439201],
            [14.553198, 53.439223],
            [14.553155, 53.439211]
          ]
        ]
      },
      "properties": { "h": 36 }
    },
    {
      "type": "Feature",
      "geometry": {
        "type": "Polygon",
        "coordinates": [
          [
            [14.552826, 53.439494],
            [14.552789, 53.439486],
            [14.552801, 53.439468],
            [14.552686, 53.439449],
            [14.552704, 53.439411],
            [14.552724, 53.439369],
            [14.552763, 53.439283],
            [14.553037, 53.439328],
            [14.55296, 53.439494],
            [14.552891, 53.439483],
            [14.552873, 53.439507],
            [14.552826, 53.439494]
          ]
        ]
      },
      "properties": { "h": 36 }
    },
    {
      "type": "Feature",
      "geometry": {
        "type": "Polygon",
        "coordinates": [
          [
            [14.555431, 53.439887],
            [14.555412, 53.439883],
            [14.555421, 53.439865],
            [14.555307, 53.439846],
            [14.555335, 53.439785],
            [14.555362, 53.439724],
            [14.555373, 53.4397],
            [14.555383, 53.439679],
            [14.555657, 53.439724],
            [14.555616, 53.439815],
            [14.55561, 53.439828],
            [14.555582, 53.439891],
            [14.555509, 53.43988],
            [14.555489, 53.4399],
            [14.555449, 53.439891],
            [14.555431, 53.439887]
          ]
        ]
      },
      "properties": { "h": 36 }
    },
    {
      "type": "Feature",
      "geometry": {
        "type": "Polygon",
        "coordinates": [
          [
            [14.554827, 53.439227],
            [14.554789, 53.439222],
            [14.554798, 53.439203],
            [14.554684, 53.439184],
            [14.554724, 53.439096],
            [14.554752, 53.439033],
            [14.55476, 53.439017],
            [14.555036, 53.439061],
            [14.55496, 53.439229],
            [14.554888, 53.439216],
            [14.554869, 53.439239],
            [14.554827, 53.439227]
          ]
        ]
      },
      "properties": { "h": 36 }
    },
    {
      "type": "Feature",
      "geometry": {
        "type": "Polygon",
        "coordinates": [
          [
            [14.555142, 53.439573],
            [14.555103, 53.439567],
            [14.55511, 53.439547],
            [14.554997, 53.439529],
            [14.555015, 53.439487],
            [14.555043, 53.439422],
            [14.555062, 53.439381],
            [14.55507, 53.439362],
            [14.555345, 53.439405],
            [14.555273, 53.439573],
            [14.5552, 53.439562],
            [14.55518, 53.439583],
            [14.555142, 53.439573]
          ]
        ]
      },
      "properties": { "h": 36 }
    },
    {
      "type": "Feature",
      "geometry": {
        "type": "Polygon",
        "coordinates": [
          [
            [14.557581, 53.438368],
            [14.557581, 53.438338],
            [14.557529, 53.438338],
            [14.557532, 53.438088],
            [14.557745, 53.438089],
            [14.557743, 53.438339],
            [14.557682, 53.438339],
            [14.557682, 53.438368],
            [14.55763, 53.438368],
            [14.557581, 53.438368]
          ]
        ]
      },
      "properties": { "h": 36 }
    },
    {
      "type": "Feature",
      "geometry": {
        "type": "Polygon",
        "coordinates": [
          [
            [14.544298, 53.447153],
            [14.544274, 53.447105],
            [14.54426, 53.447108],
            [14.544258, 53.447104],
            [14.544264, 53.447103],
            [14.544247, 53.447067],
            [14.544176, 53.446912],
            [14.544171, 53.446913],
            [14.544149, 53.446864],
            [14.544255, 53.446847],
            [14.544353, 53.446831],
            [14.544375, 53.446877],
            [14.544368, 53.446878],
            [14.544458, 53.447073],
            [14.544464, 53.447072],
            [14.544466, 53.447077],
            [14.544455, 53.447078],
            [14.544424, 53.447082],
            [14.544441, 53.447121],
            [14.544438, 53.447121],
            [14.544434, 53.447111],
            [14.544372, 53.447121],
            [14.54438, 53.44714],
            [14.544298, 53.447153]
          ]
        ]
      },
      "properties": { "h": 36 }
    },
    {
      "type": "Feature",
      "geometry": {
        "type": "Polygon",
        "coordinates": [
          [
            [14.543221, 53.447645],
            [14.543199, 53.447596],
            [14.543187, 53.447597],
            [14.543186, 53.447595],
            [14.543192, 53.447593],
            [14.543102, 53.447403],
            [14.543097, 53.447404],
            [14.543076, 53.447356],
            [14.543178, 53.44734],
            [14.543275, 53.447324],
            [14.543298, 53.44737],
            [14.543294, 53.447371],
            [14.543383, 53.447563],
            [14.54339, 53.447562],
            [14.543392, 53.447566],
            [14.543346, 53.447574],
            [14.543363, 53.44761],
            [14.543359, 53.44761],
            [14.543358, 53.447607],
            [14.543292, 53.447616],
            [14.543299, 53.447634],
            [14.543221, 53.447645]
          ]
        ]
      },
      "properties": { "h": 36 }
    },
    {
      "type": "Feature",
      "geometry": {
        "type": "Polygon",
        "coordinates": [
          [
            [14.543238, 53.448138],
            [14.543222, 53.448107],
            [14.543146, 53.448119],
            [14.543144, 53.448119],
            [14.54314, 53.44812],
            [14.543134, 53.448121],
            [14.543131, 53.448119],
            [14.543137, 53.448116],
            [14.543046, 53.447925],
            [14.543042, 53.447926],
            [14.54302, 53.447879],
            [14.543224, 53.447845],
            [14.543246, 53.447892],
            [14.543242, 53.447892],
            [14.543333, 53.448085],
            [14.543337, 53.448083],
            [14.543339, 53.448085],
            [14.543293, 53.448096],
            [14.543311, 53.44813],
            [14.543306, 53.448131],
            [14.543304, 53.448126],
            [14.543278, 53.448131],
            [14.543238, 53.448138]
          ]
        ]
      },
      "properties": { "h": 36 }
    },
    {
      "type": "Feature",
      "geometry": {
        "type": "Polygon",
        "coordinates": [
          [
            [14.540984, 53.446759],
            [14.541025, 53.446745],
            [14.54106, 53.446733],
            [14.541066, 53.446738],
            [14.541397, 53.446624],
            [14.541192, 53.446411],
            [14.541407, 53.446335],
            [14.541683, 53.446619],
            [14.54116, 53.4468],
            [14.54115, 53.44679],
            [14.541049, 53.446825],
            [14.541003, 53.446778],
            [14.540984, 53.446759]
          ]
        ]
      },
      "properties": { "h": 36 }
    }
  ]
}
